STARLINK-3898           
1 52458U 22049H   26046.69909707  .00000965  00000+0  78717-4 0  9999
2 52458  53.2164 167.8405 0001216  91.0319 269.0813 15.08840619208798
STARLINK-3856           
1 52459U 22049J   26046.55186451  .00001136  00000+0  89459-4 0  9994
2 52459  53.2183 158.5045 0001396  99.4720 260.6430 15.08839041208906
STARLINK-3900           
1 52461U 22049L   26046.54910260  .00000237  00000+0  32949-4 0  9992
2 52461  53.2185 148.5142 0001339  96.7976 263.3169 15.08839866209048
STARLINK-3903           
1 52462U 22049M   26046.74417907  .00001062  00000+0  84814-4 0  9990
2 52462  53.2177 157.6475 0001448  99.3429 260.7727 15.08841517208937
STARLINK-3885           
1 52463U 22049N   26046.67790199  .00000216  00000+0  31676-4 0  9998
2 52463  53.2162 147.9357 0001197  83.7021 276.4108 15.08842248209063
STARLINK-3904           
1 52464U 22049P   26046.68066632  .00000579  00000+0  54491-4 0  9990
2 52464  53.2169 157.9248 0001168  92.1532 267.9594 15.08838630208928
STARLINK-3863           
1 52465U 22049Q   26046.54174839 -.00000521  00000+0 -14623-4 0  9997
2 52465  53.2163 148.5502 0001406  75.1932 284.9216 15.08835197209041
STARLINK-3873           
1 52467U 22049S   26046.54082601  .00001165  00000+0  91279-4 0  9999
2 52467  53.2170 158.5513 0001166  91.5515 268.5610 15.08836895208902
STARLINK-3864           
1 52468U 22049T   26046.65858008  .00000299  00000+0  36872-4 0  9999
2 52468  53.2166 158.0211 0001089  92.5772 267.5345 15.08840834208922
STARLINK-3828           
1 52469U 22049U   26046.66594537  .00000609  00000+0  56338-4 0  9999
2 52469  53.2172 157.9946 0001302  89.4696 270.6445 15.08835714208928
STARLINK-3859           
1 52470U 22049V   26046.58499435  .00001144  00000+0  89943-4 0  9996
2 52470  53.2176 158.3519 0001264  88.7658 271.3479 15.08839721208918
STARLINK-3862           
1 52471U 22049W   26046.66321991  .00000076  00000+0  22897-4 0  9995
2 52471  53.2173 158.0091 0001389  97.8435 262.2715 15.08839185208927
STARLINK-3881           
1 52472U 22049X   26046.71378055  .00000147  00000+0  27298-4 0  9994
2 52472  53.2168 157.7727 0001368  81.4863 278.6284 15.08842732208930
STARLINK-3879           
1 52473U 22049Y   26046.78737707  .00001450  00000+0  10916-3 0  9991
2 52473  53.2173 157.4417 0001390  87.9297 272.1854 15.08846919208941
STARLINK-3855           
1 52474U 22049Z   26046.91668981  .01203158  00000+0  20145-1 0  9997
2 52474  53.2184 144.1145 0001122  77.2716 174.6186 15.48623011  5631
STARLINK-3882           
1 52475U 22049AA  26046.73588031  .00001292  00000+0  99230-4 0  9993
2 52475  53.2167 157.8971 0001315  93.3634 266.7509 15.08847914208939
