[{"OBJECT_NAME":"STARLINK-3898","OBJECT_ID":"2022-049H","EPOCH":"2026-02-15T16:46:41.986848","MEAN_MOTION":15.08840619,"ECCENTRICITY":0.00012167,"INCLINATION":53.2164,"RA_OF_ASC_NODE":167.8405,"ARG_OF_PERICENTER":91.0319,"MEAN_ANOMALY":269.0813,"EPHEMERIS_TYPE":0,"CLASSIFICATION_TYPE":"U","NORAD_CAT_ID":52458,"ELEMENT_SET_NO":999,"REV_AT_EPOCH":20879,"BSTAR":7.8716503e-5,"MEAN_MOTION_DOT":9.65e-6,"MEAN_MOTION_DDOT":0},{"OBJECT_NAME":"STARLINK-3856","OBJECT_ID":"2022-049J","EPOCH":"2026-02-15T13:14:41.093664","MEAN_MOTION":15.08839041,"ECCENTRICITY":0.0001396,"INCLINATION":53.2183,"RA_OF_ASC_NODE":158.5045,"ARG_OF_PERICENTER":99.472,"MEAN_ANOMALY":260.643,"EPHEMERIS_TYPE":0,"CLASSIFICATION_TYPE":"U","NORAD_CAT_ID":52459,"ELEMENT_SET_NO":999,"REV_AT_EPOCH":20890,"BSTAR":8.9459e-5,"MEAN_MOTION_DOT":1.136e-5,"MEAN_MOTION_DDOT":0},{"OBJECT_NAME":"STARLINK-3900","OBJECT_ID":"2022-049L","EPOCH":"2026-02-15T13:10:42.464640","MEAN_MOTION":15.08839866,"ECCENTRICITY":0.0001339,"INCLINATION":53.2185,"RA_OF_ASC_NODE":148.5142,"ARG_OF_PERICENTER":96.7976,"MEAN_ANOMALY":263.3169,"EPHEMERIS_TYPE":0,"CLASSIFICATION_TYPE":"U","NORAD_CAT_ID":52461,"ELEMENT_SET_NO":999,"REV_AT_EPOCH":20904,"BSTAR":3.2949e-5,"MEAN_MOTION_DOT":2.37e-6,"MEAN_MOTION_DDOT":0},{"OBJECT_NAME":"STARLINK-3903","OBJECT_ID":"2022-049M","EPOCH":"2026-02-15T17:51:37.071648","MEAN_MOTION":15.08841517,"ECCENTRICITY":0.00014486,"INCLINATION":53.2177,"RA_OF_ASC_NODE":157.6475,"ARG_OF_PERICENTER":99.3429,"MEAN_ANOMALY":260.7727,"EPHEMERIS_TYPE":0,"CLASSIFICATION_TYPE":"U","NORAD_CAT_ID":52462,"ELEMENT_SET_NO":999,"REV_AT_EPOCH":20893,"BSTAR":8.4813503e-5,"MEAN_MOTION_DOT":1.062e-5,"MEAN_MOTION_DDOT":0},{"OBJECT_NAME":"STARLINK-3885","OBJECT_ID":"2022-049N","EPOCH":"2026-02-15T16:16:10.731936","MEAN_MOTION":15.08842248,"ECCENTRICITY":0.00011979,"INCLINATION":53.2162,"RA_OF_ASC_NODE":147.9357,"ARG_OF_PERICENTER":83.7021,"MEAN_ANOMALY":276.4108,"EPHEMERIS_TYPE":0,"CLASSIFICATION_TYPE":"U","NORAD_CAT_ID":52463,"ELEMENT_SET_NO":999,"REV_AT_EPOCH":20906,"BSTAR":3.1675839e-5,"MEAN_MOTION_DOT":2.16e-6,"MEAN_MOTION_DDOT":0},{"OBJECT_NAME":"STARLINK-3904","OBJECT_ID":"2022-049P","EPOCH":"2026-02-15T16:20:09.570048","MEAN_MOTION":15.0883863,"ECCENTRICITY":0.00011688,"INCLINATION":53.2169,"RA_OF_ASC_NODE":157.9248,"ARG_OF_PERICENTER":92.1532,"MEAN_ANOMALY":267.9594,"EPHEMERIS_TYPE":0,"CLASSIFICATION_TYPE":"U","NORAD_CAT_ID":52464,"ELEMENT_SET_NO":999,"REV_AT_EPOCH":20892,"BSTAR":5.4491033e-5,"MEAN_MOTION_DOT":5.79e-6,"MEAN_MOTION_DDOT":0},{"OBJECT_NAME":"STARLINK-3863","OBJECT_ID":"2022-049Q","EPOCH":"2026-02-15T13:00:07.060896","MEAN_MOTION":15.08835197,"ECCENTRICITY":0.0001406,"INCLINATION":53.2163,"RA_OF_ASC_NODE":148.5502,"ARG_OF_PERICENTER":75.1932,"MEAN_ANOMALY":284.9216,"EPHEMERIS_TYPE":0,"CLASSIFICATION_TYPE":"U","NORAD_CAT_ID":52465,"ELEMENT_SET_NO":999,"REV_AT_EPOCH":20904,"BSTAR":-1.4623e-5,"MEAN_MOTION_DOT":-5.21e-6,"MEAN_MOTION_DDOT":0},{"OBJECT_NAME":"STARLINK-3873","OBJECT_ID":"2022-049S","EPOCH":"2026-02-15T12:58:47.367264","MEAN_MOTION":15.08836895,"ECCENTRICITY":0.0001166,"INCLINATION":53.217,"RA_OF_ASC_NODE":158.5513,"ARG_OF_PERICENTER":91.5515,"MEAN_ANOMALY":268.561,"EPHEMERIS_TYPE":0,"CLASSIFICATION_TYPE":"U","NORAD_CAT_ID":52467,"ELEMENT_SET_NO":999,"REV_AT_EPOCH":20890,"BSTAR":9.1279e-5,"MEAN_MOTION_DOT":1.165e-5,"MEAN_MOTION_DDOT":0},{"OBJECT_NAME":"STARLINK-3864","OBJECT_ID":"2022-049T","EPOCH":"2026-02-15T15:48:21.318912","MEAN_MOTION":15.08840834,"ECCENTRICITY":0.00010896,"INCLINATION":53.2166,"RA_OF_ASC_NODE":158.0211,"ARG_OF_PERICENTER":92.5772,"MEAN_ANOMALY":267.5345,"EPHEMERIS_TYPE":0,"CLASSIFICATION_TYPE":"U","NORAD_CAT_ID":52468,"ELEMENT_SET_NO":999,"REV_AT_EPOCH":20892,"BSTAR":3.6872464e-5,"MEAN_MOTION_DOT":2.99e-6,"MEAN_MOTION_DDOT":0},{"OBJECT_NAME":"STARLINK-3828","OBJECT_ID":"2022-049U","EPOCH":"2026-02-15T15:58:57.679968","MEAN_MOTION":15.08835714,"ECCENTRICITY":0.00013025,"INCLINATION":53.2172,"RA_OF_ASC_NODE":157.9946,"ARG_OF_PERICENTER":89.4696,"MEAN_ANOMALY":270.6445,"EPHEMERIS_TYPE":0,"CLASSIFICATION_TYPE":"U","NORAD_CAT_ID":52469,"ELEMENT_SET_NO":999,"REV_AT_EPOCH":20892,"BSTAR":5.6337577e-5,"MEAN_MOTION_DOT":6.09e-6,"MEAN_MOTION_DDOT":0},{"OBJECT_NAME":"STARLINK-3859","OBJECT_ID":"2022-049V","EPOCH":"2026-02-15T14:02:23.511840","MEAN_MOTION":15.08839721,"ECCENTRICITY":0.0001264,"INCLINATION":53.2176,"RA_OF_ASC_NODE":158.3519,"ARG_OF_PERICENTER":88.7658,"MEAN_ANOMALY":271.3479,"EPHEMERIS_TYPE":0,"CLASSIFICATION_TYPE":"U","NORAD_CAT_ID":52470,"ELEMENT_SET_NO":999,"REV_AT_EPOCH":20891,"BSTAR":8.9943e-5,"MEAN_MOTION_DOT":1.144e-5,"MEAN_MOTION_DDOT":0},{"OBJECT_NAME":"STARLINK-3862","OBJECT_ID":"2022-049W","EPOCH":"2026-02-15T15:55:02.200224","MEAN_MOTION":15.08839185,"ECCENTRICITY":0.00013892,"INCLINATION":53.2173,"RA_OF_ASC_NODE":158.0091,"ARG_OF_PERICENTER":97.8435,"MEAN_ANOMALY":262.2715,"EPHEMERIS_TYPE":0,"CLASSIFICATION_TYPE":"U","NORAD_CAT_ID":52471,"ELEMENT_SET_NO":999,"REV_AT_EPOCH":20892,"BSTAR":2.2897077e-5,"MEAN_MOTION_DOT":7.6e-7,"MEAN_MOTION_DDOT":0},{"OBJECT_NAME":"STARLINK-3881","OBJECT_ID":"2022-049X","EPOCH":"2026-02-15T17:07:50.639520","MEAN_MOTION":15.08842732,"ECCENTRICITY":0.00013689,"INCLINATION":53.2168,"RA_OF_ASC_NODE":157.7727,"ARG_OF_PERICENTER":81.4863,"MEAN_ANOMALY":278.6284,"EPHEMERIS_TYPE":0,"CLASSIFICATION_TYPE":"U","NORAD_CAT_ID":52472,"ELEMENT_SET_NO":999,"REV_AT_EPOCH":20893,"BSTAR":2.7298328e-5,"MEAN_MOTION_DOT":1.47e-6,"MEAN_MOTION_DDOT":0},{"OBJECT_NAME":"STARLINK-3879","OBJECT_ID":"2022-049Y","EPOCH":"2026-02-15T18:53:49.378848","MEAN_MOTION":15.08846919,"ECCENTRICITY":0.00013902,"INCLINATION":53.2173,"RA_OF_ASC_NODE":157.4417,"ARG_OF_PERICENTER":87.9297,"MEAN_ANOMALY":272.1854,"EPHEMERIS_TYPE":0,"CLASSIFICATION_TYPE":"U","NORAD_CAT_ID":52473,"ELEMENT_SET_NO":999,"REV_AT_EPOCH":20894,"BSTAR":0.00010916189,"MEAN_MOTION_DOT":1.45e-5,"MEAN_MOTION_DDOT":0},{"OBJECT_NAME":"STARLINK-3855","OBJECT_ID":"2022-049Z","EPOCH":"2026-02-15T22:00:01.999584","MEAN_MOTION":15.48623011,"ECCENTRICITY":0.00011228,"INCLINATION":53.2184,"RA_OF_ASC_NODE":144.1145,"ARG_OF_PERICENTER":77.2716,"MEAN_ANOMALY":174.6186,"EPHEMERIS_TYPE":0,"CLASSIFICATION_TYPE":"U","NORAD_CAT_ID":52474,"ELEMENT_SET_NO":999,"REV_AT_EPOCH":563,"BSTAR":0.020145303,"MEAN_MOTION_DOT":0.01203158,"MEAN_MOTION_DDOT":0},{"OBJECT_NAME":"STARLINK-3882","OBJECT_ID":"2022-049AA","EPOCH":"2026-02-15T17:39:40.058784","MEAN_MOTION":15.08847914,"ECCENTRICITY":0.00013151,"INCLINATION":53.2167,"RA_OF_ASC_NODE":157.8971,"ARG_OF_PERICENTER":93.3634,"MEAN_ANOMALY":266.7509,"EPHEMERIS_TYPE":0,"CLASSIFICATION_TYPE":"U","NORAD_CAT_ID":52475,"ELEMENT_SET_NO":999,"REV_AT_EPOCH":20893,"BSTAR":9.9230492e-5,"MEAN_MOTION_DOT":1.292e-5,"MEAN_MOTION_DDOT":0}]
